CICERO 6                
1 42793U 17036AE  24114.05892067  .00208305  00000+0  14613-2 0  9995
2 42793  97.0948 150.9256 0003050  96.9489 263.2123 15.73575088381083
CORVUS BC2              
1 42846U 17042X   24114.46212597  .00007588  00000+0  66138-3 0  9990
2 42846  97.3739 302.6337 0007189 235.9654 124.0886 14.97123950369252
CORVUS BC1              
1 42847U 17042Y   24114.49554266  .00006503  00000+0  56527-3 0  9993
2 42847  97.3746 303.0616 0006891 237.3140 122.7419 14.97282054369271
MIRATA                  
1 43015U 17073C   24114.20820484  .00036444  00000+0  17946-2 0  9990
2 43015  97.6044 359.6772 0179730  88.6038 273.5769 15.04765273348053
MAKERSAT 0              
1 43016U 17073D   24113.89491928  .00022433  00000+0  13021-2 0  9995
2 43016  97.5904 354.4618 0203439 108.2222 254.1259 14.96281018347641
CORVUS BC3              
1 43118U 18004H   24113.71097656  .00194932  00000+0  14322-2 0  9993
2 43118  97.2891 197.6679 0002115 111.4826 248.6663 15.72522101350157
GOMX-4B                 
1 43196U 18015E   24114.01092479  .00077540  00000+0  10823-2 0  9990
2 43196  97.6058 283.6970 0009298 160.3367 199.8247 15.56575154346927
GOMX-4A                 
1 43197U 18015F   24114.48080022  .00094705  00000+0  97027-3 0  9997
2 43197  97.5975 288.5147 0007662 153.1837 206.9819 15.64637792347292
CICERO 10               
1 43690U 18088A   24113.79064468  .00152009  00000+0  15245-2 0  9997
2 43690  85.0186 218.9876 0007250 155.1077 205.0539 15.65002787303509
PROXIMA I               
1 43694U 18088E   24113.73235130  .00439129  00000+0  17873-2 0  9991
2 43694  85.0086 212.2385 0001677 196.0497 164.0726 15.85110466303981
PROXIMA II              
1 43696U 18088G   24114.00973157  .00395120  00000+0  17238-2 0  9999
2 43696  85.0087 212.2096 0001436 204.1434 155.9774 15.83745237304002
SIRION PATHFINDER-2     
1 43759U 18099B   24113.61451394  .00011279  00000+0  86289-3 0  9994
2 43759  97.5364 171.3377 0014938 115.8775 244.3992 15.01975829294164
CORVUS BC4              
1 43767U 18099K   24113.69016824  .00010602  00000+0  82645-3 0  9997
2 43767  97.5210 168.7788 0008979 182.5611 177.5569 15.01334200294065
MOVE-II                 
1 43780U 18099Y   24114.12404873  .00032330  00000+0  18167-2 0  9995
2 43780  97.5261 177.7131 0008185 161.2956 198.8577 15.13202071294599
SPACEBEE-7              
1 43816U 18099BL  24114.16364640  .00023489  00000+0  14550-2 0  9993
2 43816  97.5529 178.5919 0011996 117.1752 243.0701 15.09713862294106
SPACEBEE-6              
1 43818U 18099BN  24114.16713970  .00047658  00000+0  22509-2 0  9996
2 43818  97.5452 183.0988 0010531 125.3970 234.8249 15.19214268294547
SHIELDS 1               
1 43850U 18104B   24114.56075912  .00018317  00000+0  52181-3 0  9990
2 43850  85.0216 320.1521 0009038 278.1458  81.8766 15.35927027297772
ZACUBE-2                
1 43907U 18111AH  24114.55956824  .07768979  23640-5  98854-3 0  9991
2 43907  97.0553 358.6427 0008631 216.8977 143.1728 16.35893176297639
SONATE                  
1 44400U 19038Q   24113.91309920  .00033701  00000+0  11041-2 0  9999
2 44400  97.7123 105.6528 0014462 306.2189  53.7714 15.31480559265614
LUCKY-7                 
1 44406U 19038W   24113.94419779  .00053029  00000+0  13465-2 0  9999
2 44406  97.7035 109.0655 0011031 288.0411  71.9632 15.39420283265858
BEESAT 9                
1 44412U 19038AC  24114.53685705  .00288632  00000+0  22654-2 0  9996
2 44412  97.6800 117.3445 0005539 204.1458 155.9545 15.70654468266181
JAISAT-1                
1 44419U 19038F   24114.50213709  .00247854  00000+0  20851-2 0  9999
2 44419  97.6792 118.3065 0004938 205.5855 154.5162 15.69091322266558
DUCHIFAT-3              
1 44854U 19089C   24114.10967709  .00028163  00000+0  15039-2 0  9992
2 44854  36.9593  22.9146 0008717 338.5550  21.4831 15.14293118239848
M2 PATHFINDER           
1 45727U 20037E   24114.03819726  .00007668  00000+0  67706-3 0  9990
2 45727  97.7743 290.7911 0009924 312.6634  47.3751 14.96617118207697
NETSAT-4                
1 46504U 20068U   24114.43309568  .00018741  00000+0  10399-2 0  9999
2 46504  97.8023  70.1650 0010119 177.5576 182.5706 15.13763255195887
NETSAT-3                
1 46505U 20068V   24114.33229963  .00017226  00000+0  96953-3 0  9997
2 46505  97.8000  69.6346 0008992 184.3471 175.7683 15.13283095195869
NETSAT-1                
1 46506U 20068W   24114.39314615  .00013724  00000+0  80388-3 0  9997
2 46506  97.8015  69.2867 0007127 194.2754 165.8275 15.11912349195847
NETSAT-2                
1 46507U 20068X   24114.11651469  .00018127  00000+0  10094-2 0  9997
2 46507  97.8006  69.4911 0006654 197.7804 162.3195 15.13668042195784
WILDTRACKCUBE-SIMBA     
1 47941U 21022K   24114.48826711  .00022006  00000+0  10316-2 0  9993
2 47941  97.4669  11.7987 0015106 343.5858  16.4885 15.19598358170150
BEESAT-6                
1 47957U 21022AB  24114.54245191  .00172911  00000+0  29802-2 0  9995
2 47957  97.4504  20.3193 0003409 319.7750  40.3249 15.50416320170545
SMOG-1                  
1 47964U 21022AJ  24114.51239293  .00144443  00000+0  25401-2 0  9996
2 47964  97.4694  23.3520 0003535 277.3879  82.6970 15.49949888169727
BCCSAT-1                
1 48041U 21022AK  24114.18912471  .00091127  00000+0  22460-2 0  9994
2 48041  97.4690  19.8378 0004497 301.5380  58.5426 15.40209202169443
BEESAT-5                
1 48083U 21022AM  24114.20693866  .00249582  00000+0  33453-2 0  9991
2 48083  97.4276  20.9556 0000751 302.6459  57.4724 15.57111181169735
BEESAT-7                
1 48084U 21022AN  24114.20232241  .00125707  00000+0  24495-2 0  9996
2 48084  97.4643  20.2250 0005333 306.8396  53.2364 15.47060869169228
BEESAT-8                
1 48085U 21022AP  24114.51154916  .00044266  00000+0  15701-2 0  9993
2 48085  97.4813  16.1635 0010855 330.1496  29.9124 15.28881179169515
LEDSAT                  
1 49069U 21073D   24114.15622904  .00030166  00000+0  12904-2 0  9995
2 49069  97.4409 185.7334 0021405 117.5918 242.7495 15.22561816148078
SITRO-AIS 5 (KATYS)     
1 57176U 23091L   24114.48006477  .00013799  00000+0  91306-3 0  9999
2 57176  97.6186 167.1606 0016539 311.0163  48.9634 15.07355646 45253
SITRO-AIS 6 (CHIRKIN)   
1 57192U 23091AC  24114.33466678  .00013740  00000+0  90781-3 0  9996
2 57192  97.6184 167.0379 0016176 311.7297  48.2547 15.07413842 45234
SITRO-AIS 8 (ANOKHIN)   
1 57193U 23091AD  24114.51192708  .00013756  00000+0  90303-3 0  9994
2 57193  97.6171 167.2574 0016194 311.2903  48.6929 15.07653179 45269
SITRO-AIS 7 (FARTUSHNIY)
1 57194U 23091AE  24114.40454051  .00013143  00000+0  86961-3 0  9990
2 57194  97.6183 167.0936 0016095 312.0652  47.9206 15.07374939 45245
SITRO-AIS 10 (BURDAEV)  
1 57199U 23091AK  24114.47963989  .00015893  00000+0  99677-3 0  9999
2 57199  97.6198 167.9680 0010972 299.9473  60.0666 15.09357819 45306
SITRO-AIS 9 (SHCHUKIN)  
1 57201U 23091AM  24114.47750484  .00016145  00000+0  10125-2 0  9998
2 57201  97.6192 167.9512 0010902 299.7856  60.2287 15.09357305 45305
SITRO-AIS 12 (SMIRENNIY)
1 57204U 23091AQ  24114.51296244  .00015878  00000+0  99113-3 0  9992
2 57204  97.6192 168.0959 0011020 292.6293  67.3769 15.09529501 45317
SITRO-AIS 11 (SHEFFER)  
1 57208U 23091AU  24114.50156615  .00017490  00000+0  10889-2 0  9996
2 57208  97.6192 168.1013 0010914 292.9119  67.0958 15.09603557 45315
SITRO-AIS 29            
1 59052U 24039B   24114.48872858  .00035800  00000+0  14288-2 0  9991
2 59052  97.3892  77.0643 0021290  55.9181 304.4073 15.24864203  8252
SITRO-AIS 30            
1 59053U 24039C   24114.48819022  .00034514  00000+0  13764-2 0  9995
2 59053  97.3889  77.0629 0021387  56.6354 303.6927 15.24896308  8249
SITRO-AIS 31            
1 59054U 24039D   24114.48525271  .00035025  00000+0  13930-2 0  9999
2 59054  97.3889  77.0668 0021214  56.6913 303.6353 15.24987080  8266
SITRO-AIS 33            
1 59055U 24039E   24114.48171819  .00035153  00000+0  13937-2 0  9994
2 59055  97.3891  77.0732 0021019  57.3070 303.0191 15.25096050  8259
SITRO-AIS 35            
1 59056U 24039F   24114.47974540  .00035392  00000+0  14014-2 0  9998
2 59056  97.3890  77.0750 0020796  57.5505 302.7740 15.25141419  8251
SITRO-AIS 32            
1 59057U 24039G   24114.48182563  .00033925  00000+0  13468-2 0  9998
2 59057  97.3890  77.0726 0020757  57.6514 302.6730 15.25064371  8252
SITRO-AIS 34            
1 59058U 24039H   24114.48057313  .00034219  00000+0  13566-2 0  9999
2 59058  97.3891  77.0754 0020951  57.4372 302.8886 15.25104963  8257
SITRO-AIS 36            
1 59059U 24039J   24114.47742709  .00036078  00000+0  14258-2 0  9993
2 59059  97.3889  77.0787 0020489  57.6949 302.6270 15.25207049  8253
SITRO-AIS 49            
1 59060U 24039K   24114.47671005  .00034849  00000+0  13778-2 0  9995
2 59060  97.3890  77.0793 0020491  57.4929 302.8285 15.25200841  8254
SITRO-AIS 50            
1 59061U 24039L   24114.47410148  .00036127  00000+0  14226-2 0  9995
2 59061  97.3889  77.0829 0020480  57.7344 302.5874 15.25327867  8254
SITRO-AIS 51            
1 59062U 24039M   24114.47318188  .00034287  00000+0  13504-2 0  9990
2 59062  97.3889  77.0842 0020405  57.5005 302.8201 15.25334623  8254
SITRO-AIS 52            
1 59063U 24039N   24114.53609141  .00034750  00000+0  13649-2 0  9995
2 59063  97.3889  77.1525 0020181  57.2504 303.0676 15.25427280  8268
SITRO-AIS 25            
1 59066U 24039R   24114.53306938  .00008450  00000+0  82054-3 0  9991
2 59066  95.4006  60.3779 0174423 170.0854 190.3882 14.81930613  8016
SITRO-AIS 26            
1 59067U 24039S   24114.53241924  .00008399  00000+0  81586-3 0  9996
2 59067  95.4005  60.3780 0174230 170.1180 190.3541 14.81941154  8011
SITRO-AIS 27            
1 59068U 24039T   24114.52836811  .00008266  00000+0  80100-3 0  9995
2 59068  95.4007  60.3834 0174001 169.9988 190.4770 14.82062527  8016
